id,lat_wc,lon_wc,display_name_wc,zone_wc,lines_wc,rail_wc,name_wc,lon_tfl,lat_tfl,name_tfl,name,x_do,y_do,lat,lon,zone_do
363,,,,,,,,,,,Abbey Road,539081,183352,51.531951985733,0.003737785606911,3
366,,,,,,,,,,,Acton Central,520613,180299,51.508757812012,-0.26341579231596,2
1,51.5028,-0.2801,Acton<br />Town,3,2,0,Acton Town,-0.280251203536111,51.5027497730006,Acton Town Station,Acton Town,519457,179639,51.503071476856,-0.2802882961706,3
2,51.5143,-0.0755,NULL,1,2,0,Aldgate,-0.07561418447775,51.5142718230834,Aldgate Station,Aldgate,533629,181246,51.514342387502,-0.075612503707184,1
3,51.5154,-0.0726,Aldgate<br />East,1,2,0,Aldgate East,-0.072287119975365,51.5152334137965,Aldgate East Station,Aldgate East,533809,181333,51.515081631079,-0.072987053548915,1
4,51.5107,-0.013,All<br />Saints,2,1,0,All Saints,-0.012751749577122,51.5110100780824,All Saints Station,All Saints,538012,180933,51.510476925464,-0.012610477634,2
5,51.5407,-0.2997,NULL,4,1,0,Alperton,-0.299486538678612,51.5406947662935,Alperton Station,Alperton,518025,183849,51.541209310632,-0.2995013414547,4
6,51.6736,-0.607,NULL,10,1,1,Amersham,-0.607478839102469,51.6741497106297,Amersham Station,Amersham,496454,198181,51.674129392062,-0.60649933056891,9
367,,,,,,,,,,,Anerley,534656,169942,51.412516725364,-0.065122723194277,4
7,51.5322,-0.1058,NULL,1,1,0,Angel,-0.105789913665305,51.5324988689043,Angel Station,Angel,531497,183263,51.532968028132,-0.10556703413728,1
8,51.5653,-0.1353,NULL,2.5,1,0,Archway,-0.135113518210335,51.5654267545338,Archway Station,Archway,529356,186827,51.565490550156,-0.13510715160572,"2,3"
9,51.6164,-0.1331,Arnos<br />Grove,4,1,0,Arnos Grove,-0.13351630958178,51.6163402610568,Arnos Grove Station,Arnos Grove,529271,192471,51.616230157665,-0.13425577761924,4
10,51.5586,-0.1059,NULL,2,1,0,Arsenal,-0.105761988175558,51.5584987687767,Arsenal Station,Arsenal,531429,186107,51.558541388156,-0.10548551071377,2
11,51.5226,-0.1571,Baker<br />Street,1,5,0,Baker Street,-0.156900356057781,51.5230612481428,Baker Street Station,Baker Street,527965,182078,51.523129639184,-0.15688978273689,1
12,51.4431,-0.1525,NULL,3,1,1,Balham,-0.153207552666473,51.4433289796352,Balham Station,Balham,528482,173195,51.443182580239,-0.15267077683302,3
13,51.5133,-0.0886,NULL,1,4,0,Bank-Monument,-0.08891580904526,51.5133023715193,Bank-Monument Station,Bank-Monument,532704,181111,51.513347072699,-0.088985715325045,1
14,51.5204,-0.0979,NULL,1,3,0,Barbican,-0.097711123216248,51.5201457253249,Barbican Station,Barbican,532079,181859,51.520215295016,-0.097707167852645,1
15,51.5396,0.081,NULL,4,2,1,Barking,0.08086318284941,51.5394512085157,Barking Station,Barking,544405,184343,51.539521102884,0.0808460268962,4
16,51.5856,0.0887,NULL,5,1,0,Barkingside,0.088511013821779,51.5857859603905,Barkingside Station,Barkingside,544788,189510,51.585850602534,0.088491071171579,4
17,51.4905,-0.2139,Barons<br />Court,2,2,0,Barons Court,-0.213606857361082,51.4901599427089,Barons Court Station,Barons Court,524133,178322,51.490228707652,-0.21341574380466,2
18,51.5121,-0.1879,NULL,1,2,0,Bayswater,-0.188038262221618,51.5122330587411,Bayswater Station,Bayswater,525845,180799,51.512111310915,-0.18788716574986,1
19,51.5148,0.0613,NULL,3,1,0,Beckton,0.060942442359962,51.5151332826047,Beckton Station,Beckton,543145,181509,51.514376621471,0.061539705886513,3
20,51.5087,0.055,Beckton<br />Park,3,1,0,Beckton Park,0.054897746701542,51.5089437926766,Beckton Park Station,Beckton Park,542697,180887,51.508900786453,0.054836346093653,3
21,51.5403,0.127,NULL,5,1,0,Becontree,0.127400321155281,51.5402885352047,Becontree Station,Becontree,547598,184442,51.539585393148,0.12689470862039,5
22,51.5504,-0.1642,Belsize<br />Park,2,1,0,Belsize Park,-0.164232306333818,51.5504266277182,Belsize Park Station,Belsize Park,527399,185075,51.550190897304,-0.1639600723677,2
23,51.4979,-0.0637,NULL,2,1,0,Bermondsey,-0.063651350918079,51.4979491195816,Bermondsey Station,Bermondsey,534461,179445,51.497960787629,-0.064315686265478,2
24,51.527,-0.0549,Bethnal<br />Green,2,1,0,Bethnal Green,-0.055431117145884,51.5271952360696,Bethnal Green Station,Bethnal Green,534995,182712,51.527191747482,-0.055377698622437,2
25,51.512,-0.1031,NULL,1,2,0,Blackfriars,-0.103606731219863,51.5114905222475,Blackfriars Station,Blackfriars,531738,180890,51.511586939902,-0.10298097717171,1
26,51.5867,-0.0417,Blackhorse<br />Road,3,1,1,Blackhorse Road,-0.040996340920371,51.5869511954389,Blackhorse Road Station,Blackhorse Road,535914,189256,51.585776631411,-0.039611280026926,3
27,51.5079,-0.0066,NULL,2,1,0,Blackwall,-0.007108496961494,51.5082161146184,Blackwall Station,Blackwall,538394,180649,51.507831540895,-0.007220758979515,2
28,51.5142,-0.1494,Bond<br />Street,1,2,0,Bond Street,-0.149332354586202,51.5138045353881,Bond Street Station,Bond Street,528497,181053,51.513797542631,-0.14959920109132,1
29,51.5011,-0.0943,NULL,1,1,0,Borough,-0.093702664758373,51.5011939989285,Borough Station,Borough,532379,179734,51.501048880447,-0.094182918403389,1
30,51.4956,-0.325,Boston<br />Manor,4,1,0,Boston Manor,-0.324763573796374,51.4956963821882,Boston Manor Station,Boston Manor,516391,178755,51.495765574642,-0.32473278589022,4
31,51.6071,-0.1243,Bounds<br />Green,3.5,1,0,Bounds Green,-0.124218963208537,51.6070905569528,Bounds Green Station,Bounds Green,529996,191466,51.607031935983,-0.12416262739225,"3,4"
32,51.5273,-0.0208,Bow<br />Church,2,1,0,Bow Church,-0.020691424393872,51.5273331067082,Bow Church Station,Bow Church,537414,182824,51.527615205643,-0.020485486059214,2
33,51.5269,-0.0247,Bow<br />Road,2,2,0,Bow Road,-0.024823746874529,51.5268002548261,Bow Road Station,Bow Road,537148,182753,51.527041809222,-0.024345177705763,2
34,51.5766,-0.2136,Brent<br />Cross,3,1,0,Brent Cross,-0.213455833755365,51.5768004714439,Brent Cross Station,Brent Cross,523905,187927,51.576599240756,-0.21332141198154,3
35,51.4627,-0.1145,NULL,2,1,1,Brixton,-0.114635581578616,51.4625813336317,Brixton Station,Brixton,531076,175437,51.462736815606,-0.11453770490964,2
364,,,,,,,,,,,Brockley,536405,175801,51.464749666688,-0.03773385721419,2
36,51.5248,-0.0119,NULL,2.5,2,0,Bromley-By-Bow,-0.011661937058286,51.5247699375573,Bromley-By-Bow Station,Bromley-by-Bow,538034,182532,51.52484020109,-0.01166796209473,"2,3"
365,,,,,,,,,,,Brondesbury,524718,184460,51.545262386773,-0.20282406710345,2
308,,,,,,,,,,,Brondesbury Park,524202,183898,51.540325391085,-0.21045952961905,2
37,51.6266,0.0471,Buckhurst<br />Hill,5,1,0,Buckhurst Hill,0.046743856240496,51.6265173304094,Buckhurst Hill Station,Buckhurst Hill,541768,193957,51.626576654655,0.046726985755,5
38,51.6028,-0.2641,Burnt<br />Oak,4,1,0,Burnt Oak,-0.26419875814563,51.6026810997026,Burnt Oak Station,Burnt Oak,520303,190728,51.602551943784,-0.26431627556888,4
309,,,,,,,,,,,Bushey,511860,195318,51.645544206307,-0.38470709118099,8
39,51.5481,-0.1188,Caledonian<br />Road,2,1,0,Caledonian Road,-0.118312333133272,51.5484213184038,Caledonian Road Station,Caledonian Road,530568,184899,51.547885455043,-0.11834644235876,2
310,,,,,,,,,,,Caledonian Road and Barnsbury,530800,184393,51.543284589046,-0.11519043865212,2
311,,,,,,,,,,,Camden Road,529140,184191,51.541851250779,-0.13918869492503,2
40,51.5392,-0.1426,Camden<br />Town,2,1,0,Camden Town,-0.142726148730286,51.5394035226311,Camden Town Station,Camden Town,528920,183976,51.539969369251,-0.14243796405007,2
41,51.4982,-0.0502,Canada<br />Water,2,2,0,Canada Water,-0.049705986794378,51.4978886819951,Canada Water Station,Canada Water,535399,179493,51.498168417556,-0.05079271714472,2
42,51.5051,-0.0209,Canary<br />Wharf,2,2,0,Canary Wharf,-0.019431816253263,51.5035504856476,Canary Wharf Station,Canary Wharf,537558,180153,51.503578406232,-0.019452434600173,2
43,51.5147,0.0082,Canning<br />Town,3,2,1,Canning Town,0.008171036532588,51.5138371292896,Canning Town Station,Canning Town,539454,181350,51.513870285695,0.008320041548082,3
44,51.5113,-0.0904,Cannon<br />Street,1,2,0,Cannon Street,-0.090694850680981,51.5114337223373,Cannon Street Station,Cannon Street,532623,180888,51.511362099463,-0.090236118885105,1
312,,,,,,,,,,,Canonbury,532355,184979,51.548188396024,-0.092559776199295,2
45,51.6078,-0.2947,Canons<br />Park,5,1,0,Canons Park,-0.294653740878427,51.6077595152153,Canons Park Station,Canons Park,518208,191246,51.607650605221,-0.29437715826231,5
313,,,,,,,,,,,Carpenders Park,511826,193386,51.628186764519,-0.38581487914664,7
46,51.6679,-0.561,Chalfont &<br />Latimer,9,1,1,Chalfont & Latimer,-0.560534956448776,51.6680254739261,Chalfont & Latimer Station,Chalfont and Latimer,499610,197550,51.667907547721,-0.56105332039672,8
47,51.5441,-0.1538,Chalk<br />Farm,2,1,0,Chalk Farm,-0.153728009451251,51.5440831024226,Chalk Farm Station,Chalk Farm,528126,184421,51.544149104848,-0.15371865256093,2
48,51.5185,-0.1111,Chancery<br />Lane,1,1,0,Chancery Lane,-0.111677427383971,51.5181232306144,Chancery Lane Station,Chancery Lane,531096,181642,51.518494029809,-0.11194761724718,1
49,51.508,-0.1247,Charing<br />Cross,1,2,1,Charing Cross,-0.124754686624366,51.5085932076032,Charing Cross Station,Charing Cross,530234,180492,51.508358644804,-0.12478853109718,1
50,51.7052,-0.611,NULL,10,1,0,Chesham,-0.61121924632491,51.7050304548296,Chesham Station,Chesham,496048,201650,51.705380095434,-0.61141518839627,9
51,51.6177,0.0755,NULL,5,1,0,Chigwell,0.074526611263723,51.6178719254051,Chigwell Station,Chigwell,543835,193045,51.617857862487,0.076193656688014,4
52,51.4946,-0.2678,Chiswick<br />Park,3,1,0,Chiswick Park,-0.267746873913726,51.4943005917451,Chiswick Park Station,Chiswick Park,520352,178692,51.494370746332,-0.26772251965492,3
53,51.6543,-0.5183,NULL,8,1,0,Chorleywood,-0.518365989763054,51.6542178607745,Chorleywood Station,Chorleywood,502596,196092,51.654265989674,-0.51831947385278,7
54,51.4618,-0.1384,Clapham<br />Common,2,1,0,Clapham Common,-0.138311459464252,51.4617279332839,Clapham Common Station,Clapham Common,529428,175291,51.4618036863,-0.13830051012379,2
314,,,,,,,,,,,Clapham High Street,529824,175709,51.465469529402,-0.13245010905033,2
315,,,,,,,,,,,Clapham Junction,527198,175520,51.464366804651,-0.17030060907001,2
55,51.4649,-0.1299,Clapham<br />North,2,1,0,Clapham North,-0.129531053727598,51.4648437320278,Clapham North Station,Clapham North,530003,175652,51.464916230409,-0.12989566953588,2
56,51.4527,-0.148,Clapham<br />South,2.5,1,0,Clapham South,-0.147982098639174,51.4525998347145,Clapham South Station,Clapham South,528782,174259,51.452676506748,-0.1479696801021,"2,3"
57,51.6517,-0.1496,NULL,5,1,0,Cockfosters,-0.149614715155878,51.651687534575,Cockfosters Station,Cockfosters,528087,196424,51.652024496788,-0.14990225857042,5
58,51.5955,-0.2502,NULL,4,1,0,Colindale,-0.250142587760252,51.5952865187992,Colindale Station,Colindale,521295,189937,51.595230546294,-0.25027310932225,4
59,51.418,-0.1778,Colliers<br />Wood,3,1,0,Colliers Wood,-0.177700936628786,51.4180718851226,Colliers Wood Station,Colliers Wood,526831,170436,51.418759208995,-0.17740072104762,3
60,51.5129,-0.1243,Covent<br />Garden,1,1,0,Covent Garden,-0.124159260603113,51.5129095861416,Covent Garden Station,Covent Garden,530242,180982,51.512760249622,-0.1244924862088,1
61,51.4957,-0.0144,Crossharbour &<br />London Arena,2,1,0,Crossharbour & London Arena,-0.014614325661386,51.4956983741163,Crossharbour & London Arena Station,Crossharbour and London Arena,537896,179301,51.495839980525,-0.014918409980624,2
358,,,,,,,,,,,Crouch Hill,530586,187508,51.571327111387,-0.11711885796196,3
62,51.647,-0.4412,NULL,7,1,0,Croxley,-0.441710992609102,51.6470463381164,Croxley Station,Croxley,507921,195395,51.647005333911,-0.44158934771671,7
359,,,,,,,,,,,Crystal Palace,534120,170557,51.418170359941,-0.072592854062748,"3,4"
63,51.5095,0.0276,Custom<br />House,3,1,0,Custom House,0.027684411363851,51.5095438169644,Custom House Station,Custom House,540679,180911,51.509622053058,0.025786917726712,3
64,51.4827,-0.0096,Cutty<br />Sark,2.5,1,0,Cutty Sark,-0.010858772708087,51.4816943718508,Cutty Sark Station,Cutty Sark for Maritime Greenwich,538240,177764,51.481944468688,-0.01056746798363,2
65,51.5085,0.064,NULL,3,1,0,Cyprus,0.063538519717123,51.5087919302748,Cyprus Station,Cyprus,543324,180863,51.508526572883,0.063855162939039,3
66,51.5443,0.1655,Dagenham<br />East,5,1,0,Dagenham East,0.165874869677023,51.5441167342236,Dagenham East Station,Dagenham East,550284,185033,51.544187318113,0.16584784999223,5
67,51.5417,0.1469,Dagenham<br />Heathway,5,1,0,Dagenham Heathway,0.147684194913218,51.5416274136162,Dagenham Heathway Station,Dagenham Heathway,549035,184665,51.541211772284,0.14769413756505,5
316,,,,,,,,,,,Dalston Junction,533580,184778,51.546093724339,-0.07497978585502,2
317,,,,,,,,,,,Dalston Kingsland,533487,185062,51.548667827094,-0.076212502172009,2
68,51.6455,0.0838,NULL,6,1,0,Debden,0.083837809879712,51.645434322049,Debden Station,Debden,544275,196133,51.645491990883,0.083815925291538,6
318,,,,,,,,,,,Denmark Hill,532697,176087,51.468200650033,-0.090973475173744,2
69,51.474,-0.0216,Deptford<br />Bridge,2.5,1,0,Deptford Bridge,-0.021550621322945,51.4742847212735,Deptford Bridge Station,Deptford Bridge,537466,176912,51.474476774061,-0.022038032405853,"2,3"
70,51.5223,-0.0173,Devons<br />Road,2,1,0,Devons Road,-0.017224616322978,51.5221750805448,Devons Road Station,Devons Road,537603,182233,51.522258469272,-0.017993342742124,2
71,51.552,-0.2387,Dollis<br />Hill,3,1,0,Dollis Hill,-0.238797558508157,51.5519035590561,Dollis Hill Station,Dollis Hill,522207,185132,51.551850619529,-0.23878334100376,3
72,51.5152,-0.3017,Ealing<br />Broadway,3,2,1,Ealing Broadway,-0.301500096369187,51.5149130337392,Ealing Broadway Station,Ealing Broadway,517920,180915,51.51486201146,-0.30199597251937,3
73,51.5101,-0.2882,Ealing<br />Common,3,2,0,Ealing Common,-0.288260381056999,51.5101247385378,Ealing Common Station,Ealing Common,518963,180426,51.510248690463,-0.28713701041592,3
74,51.492,-0.1973,Earl's<br />Court,1.5,2,0,Earl's Court,-0.193545854058734,51.4918039078989,Earl's Court Station,Earls Court,525457,178480,51.491356695274,-0.19429940765557,"1,2"
76,51.5168,-0.2474,East<br />Acton,2,1,0,East Acton,-0.247513203550208,51.5165821990542,East Acton Station,East Acton,521656,181159,51.516263444214,-0.2480978154307,2
77,51.5874,-0.165,East<br />Finchley,3,1,0,East Finchley,-0.164738305623224,51.587271719132,East Finchley Station,East Finchley,527242,189204,51.587332564437,-0.16472945405368,3
78,51.5394,0.0518,East<br />Ham,3.5,2,0,East Ham,0.05147554883547,51.5389260365476,East Ham Station,East Ham,542373,184255,51.539246158049,0.051530710126145,"3,4"
79,51.5093,-0.0021,East<br />India,2.5,1,0,East India,-0.002748663563422,51.509041249108,East India Station,East India,538729,180753,51.508684006054,-0.00235592437985,"2,3"
80,51.4586,-0.2112,East<br />Putney,2.5,1,0,East Putney,-0.211003174222271,51.45880474635,East Putney Station,East Putney,524387,174840,51.458879808899,-0.21098384278422,"2,3"
75,51.5765,-0.397,NULL,5,2,0,Eastcote,-0.39684462718699,51.5764930445017,Eastcote Station,Eastcote,511191,187627,51.576551871493,-0.39680887105797,5
81,51.6137,-0.275,NULL,5,1,0,Edgware,-0.27497600604529,51.6136230798495,Edgware Station,Edgware,519527,192009,51.614229655466,-0.27507922607818,5
82,51.5199,-0.1679,Edgware<br />Road,1,1,0,Edgware Road (B),-0.170135073011915,51.520183893832,Edgware Road Bakerloo Station,Edgware Road (Bakerloo),527026,181778,51.520645381678,-0.17052514070378,1
83,51.5203,-0.17,Edgware<br />Road,1,3,0,Edgware Road (C),-0.167666130737584,51.5199204743673,Edgware Road Circle Station,Edgware Road (Circle/District/Hammersmith & City),527227,181711,51.51999806318,-0.1676538436008,1
84,51.4943,-0.1001,Elephant &<br />Castle,1.5,2,1,Elephant & Castle,-0.100729603883342,51.4957770472707,Elephant & Castle Station,Elephant and Castle,531940,179144,51.495849394281,-0.10072431173602,"1,2"
85,51.5496,0.1977,Elm<br />Park,6,1,0,Elm Park,0.199180459239238,51.5498012539869,Elm Park Station,Elm Park,552446,185647,51.549124559422,0.19726710182967,6
86,51.4693,-0.0174,Elverson<br />Road,2.5,1,0,Elverson Road,-0.017467307436164,51.4688194275903,Elverson Road Station,Elverson Road,537848,176243,51.468372191483,-0.016801981736488,"2,3"
87,51.5074,-0.1223,NULL,1,4,0,Embankment,-0.122360215814179,51.5072417967484,Embankment Station,Embankment,530406,180380,51.507312509276,-0.12235292981979,1
88,51.6937,0.1139,NULL,6,1,0,Epping,0.113866915583571,51.6936246075655,Epping Station,Epping,546197,201552,51.69368615157,0.11384001852178,6
89,51.5282,-0.1337,NULL,1,2,1,Euston,-0.133289718799316,51.5285962608995,Euston Station,Euston,529587,182735,51.528664346375,-0.13328205840994,1
90,51.526,-0.1359,Euston<br />Square,1,3,0,Euston Square,-0.13583614069432,51.5255610060161,Euston Square Station,Euston Square,529587,182735,51.528664346375,-0.13328205840994,1
91,51.596,0.0912,NULL,5,1,0,Fairlop,0.090929226191152,51.595680931861,Fairlop Station,Fairlop,544902,190655,51.59610953153,0.090607714208087,4
92,51.5203,-0.1053,NULL,1,3,1,Farringdon,-0.10506525423688,51.5204447549308,Farringdon Station,Farringdon,531585,181844,51.520195700647,-0.10482865117184,1
93,51.6012,-0.1932,Finchley<br />Central,4,1,0,Finchley Central,-0.192447107072111,51.6009764207852,Finchley Central Station,Finchley Central,525232,190664,51.600903273752,-0.19320620063466,4
94,51.5472,-0.1803,Finchley<br />Road,2,2,0,Finchley Road,-0.180494175915812,51.5470648343368,Finchley Road Station,Finchley Road,526293,184703,51.547096220268,-0.18003614128656,2
319,,,,,,,,,,,Finchley Road and Frognal,526035,185033,51.550119520279,-0.18363678247277,2
95,51.5642,-0.1065,Finsbury<br />Park,2,1,1,Finsbury Park,-0.106512100282158,51.5644016484846,Finsbury Park Station,Finsbury Park,531385,186784,51.564635458062,-0.10586706135916,2
320,,,,,,,,,,,Forest Hill,535398,172943,51.439308318386,-0.053314119078799,3
96,51.4804,-0.195,Fulham<br />Broadway,2,1,0,Fulham Broadway,-0.194956844603216,51.4805297842982,Fulham Broadway Station,Fulham Broadway,525402,177244,51.480260927016,-0.19552976561085,2
97,51.5096,0.0716,Gallions<br />Reach,3,1,0,Gallions Reach,0.072220032947865,51.509538091545,Gallions Reach Station,Gallions Reach,543873,180935,51.509034130657,0.071789801687878,3
98,51.5765,0.0663,Gants<br />Hill,4,1,0,Gants Hill,0.066115533982912,51.5764875480316,Gants Hill Station,Gants Hill,543266,188432,51.576552943422,0.066098526398209,4
99,51.4945,-0.1829,Gloucester<br />Road,1,3,0,Gloucester Road,-0.182989526482897,51.4942397839165,Gloucester Road Station,Gloucester Road,526196,178848,51.494499579725,-0.18352915689619,1
100,51.5724,-0.1941,Golders<br />Green,3,1,0,Golders Green,-0.193993261252232,51.5722213932328,Golders Green Station,Golders Green,525199,187471,51.572215556655,-0.19482013198437,3
101,51.5018,-0.2267,Goldhawk<br />Road,2,1,0,Goldhawk Road,-0.226748329203583,51.5019521973013,Goldhawk Road Station,Goldhawk Road,523131,179616,51.502076993967,-0.22738960127533,2
102,51.5205,-0.1347,Goodge<br />Street,1,1,0,Goodge Street,-0.134662152092394,51.5204249960455,Goodge Street Station,Goodge Street,529505,181837,51.520613125487,-0.13479327927061,1
321,,,,,,,,,,,Gospel Oak,528263,185677,51.555405311264,-0.15128661069808,2
103,51.6132,0.0923,Grange<br />Hill,5,1,0,Grange Hill,0.092146407242702,51.6133498578015,Grange Hill Station,Grange Hill,544963,192590,51.613480413753,0.092286969949084,4
104,51.5238,-0.1439,Great<br />Portland<br />Street,1,3,0,Great Portland Street,-0.143956086447369,51.5237203146289,Great Portland Street Station,Great Portland Street,528861,182174,51.52378881305,-0.14394701338886,1
107,51.5067,-0.1428,Green<br />Park,1,3,0,Green Park,-0.142927422207874,51.5068501085023,Green Park Station,Green Park,529012,180283,51.506760501463,-0.14246316907526,1
105,51.5423,-0.3456,NULL,4,1,1,Greenford,-0.34644414656746,51.5423020267591,Greenford Station,Greenford,514808,183861,51.541980112836,-0.34586432267848,4
106,51.4781,-0.0149,NULL,2.5,1,1,Greenwich,-0.014198816568398,51.4777578163502,Greenwich Station,Greenwich,537956,177267,51.477547665535,-0.014848686252722,"2,3"
108,51.4915,-0.2754,NULL,3,1,0,Gunnersbury,-0.275175034795658,51.491793104326,Gunnersbury Station,Gunnersbury,519843,178401,51.491863444709,-0.27514973411264,3
322,,,,,,,,,,,Hackney Central,534922,184943,51.547257451286,-0.055575092639468,2
323,,,,,,,,,,,Hackney Wick,537036,184588,51.543558409072,-0.025245084630728,2
324,,,,,,,,,,,Haggerston,533560,183953,51.538684738939,-0.075580841462924,2
109,51.603,0.0933,NULL,5,1,0,Hainault,0.093119014044497,51.6037272179782,Hainault Station,Hainault,545124,191411,51.602845314928,0.094122987217226,4
110,51.4936,-0.2251,NULL,2,3,0,Hammersmith,-0.224930071064953,51.4934977720066,Hammersmith Station,Hammersmith (Hammersmith & City/Circle),523474,178483,51.493483379174,-0.22462575515926,2
360,,,,,,,,,,,Hammersmith (Piccadilly/District),523346,178665,51.491819802914,-0.22284652701972,2
111,51.5568,-0.178,NULL,2.5,1,0,Hampstead,-0.178219762924765,51.5566884762644,Hampstead Station,Hampstead,526408,185757,51.556542616677,-0.17800013773286,2
325,,,,,,,,,,,Hampstead Heath,527344,185631,51.555199944256,-0.16455176144825,3
112,51.5302,-0.2933,Hanger<br />Lane,3,1,0,Hanger Lane,-0.293007522620696,51.530006403588,Hanger Lane Station,Hanger Lane,518506,182621,51.530072069094,-0.29298173181915,3
113,51.5362,-0.2575,NULL,3,1,0,Harlesden,-0.257502755154928,51.5361929101547,Harlesden Station,Harlesden,520952,183367,51.536258358843,-0.25748125850322,3
326,,,,,,,,,,,Harringay Green Lanes,531880,188189,51.57714590447,-0.098202962998489,3
114,51.5925,-0.3351,Harrow &<br />Wealdston,5,1,1,Harrow & Wealdstone,-0.335231166241642,51.5922088279649,Harrow & Wealdstone Station,Harrow and Wealdstone,515486,189508,51.592594673236,-0.33423825163137,5
115,51.5793,-0.3366,Harrow-<br />on-the-Hill,5,1,1,Harrow-on-the-Hill,-0.337015904256827,51.5793288672811,Harrow on the Hill Station,Harrow-on-the-Hill,515329,188035,51.579388159582,-0.33698708805734,5
327,,,,,,,,,,,Hatch End,513024,191370,51.609828548789,-0.36916434211502,6
116,51.4669,-0.4227,Hatton<br />Cross,5.5,1,0,Hatton Cross,-0.423409349454663,51.4666141734628,Hatton Cross Station,Hatton Cross,509614,175369,51.466685355642,-0.42336616986103,"5,6"
328,,,,,,,,,,,Headstone Lane,513892,190574,51.602499669538,-0.35689307782418,5
118,51.4598,-0.4476,Heathrow<br />Terminal 4,6,1,0,Heathrow Terminal 4,-0.446058766977937,51.458553104092,Heathrow Terminal 4 Station,Heathrow Terminal 4,507939,174565,51.45978048411,-0.44771519861354,6
329,,,,,,,,,,,Heathrow Terminal 5,504934,175642,51.470025485584,-0.49063310869077,6
117,51.4713,-0.4524,"Heathrow<br />Terminals<br />1, 2 & 3",6,1,0,"Heathrow Terminals 1, 2 & 3",-0.452439130961683,51.4712192100604,"Heathrow Terminals 1, 2, 3 Station",Heathrow Terminals 1 2 3,507587,175838,51.47128945567,-0.45239283063262,6
119,51.5829,-0.2259,Hendon<br />Central,3.5,1,0,Hendon Central,-0.226496207803293,51.583293830072,Hendon Central Station,Hendon Central,522959,188631,51.583133074092,-0.2267197095034,"3,4"
120,51.5033,-0.0215,Heron<br />Quays,2,1,0,Heron Quays,-0.021744064999688,51.5030679152992,Heron Quays Station,Heron Quays,537386,180127,51.503386571015,-0.021939126563571,2
121,51.6503,-0.1943,High<br />Barnet,5,1,0,High Barnet,-0.19475102194752,51.6506011705886,High Barnet Station,High Barnet,525027,196310,51.651688276705,-0.19415092780429,5
122,51.5009,-0.1925,High<br />Street<br />Kensington,1,2,0,High Street Kensington,-0.192503135590811,51.5006734202632,High Street Kensington Station,High Street Kensington,525622,179527,51.500729468384,-0.19155165303998,1
123,51.546,-0.104,Highbury &<br />Islington,2,1,1,Highbury & Islington,-0.103964238784979,51.5462294917379,Highbury & Islington Station,Highbury and Islington,531562,184770,51.546495518926,-0.10406772078143,2
124,51.5777,-0.1458,NULL,3,1,0,Highgate,-0.146638422561128,51.5775978296188,Highgate Station,Highgate,528503,188158,51.57764663481,-0.14692043327249,3
125,51.5538,-0.4499,NULL,6,2,0,Hillingdon,-0.449926295661859,51.5537168445709,Hillingdon Station,Hillingdon,507567,185015,51.55377757066,-0.44988357245777,6
126,51.5174,-0.12,NULL,1,2,0,Holborn,-0.120008849244825,51.517438783076,Holborn Station,Holborn,530553,181488,51.517235749261,-0.11982609759457,1
127,51.5075,-0.206,Holland<br />Park,2,1,0,Holland Park,-0.205728672749766,51.5073340431507,Holland Park Station,Holland Park,524564,180215,51.507146508744,-0.20654337129402,2
128,51.5526,-0.1132,Holloway<br />Road,2,1,0,Holloway Road,-0.112925632539152,51.5527505378786,Holloway Road Station,Holloway Road,530930,185457,51.55281611672,-0.11292127587712,2
330,,,,,,,,,,,Homerton,536108,184901,51.546595450822,-0.038497927971748,2
331,,,,,,,,,,,Honor Oak Park,536002,174221,51.450648245652,-0.044138732242293,3
129,51.5539,0.2184,NULL,6,1,0,Hornchurch,0.219018986707928,51.5540052560063,Hornchurch Station,Hornchurch,553931,186274,51.554355082156,0.21894141805997,6
130,51.4713,-0.3665,Hounslow<br />Central,4,1,0,Hounslow Central,-0.366922420319065,51.4710833003654,Hounslow Central Station,Hounslow Central,513592,175928,51.470925810282,-0.36594373417825,4
131,51.4733,-0.3564,Hounslow<br />East,4,1,0,Hounslow East,-0.35669531824492,51.4731706158332,Hounslow East Station,Hounslow East,514327,176254,51.473707937461,-0.35526092596841,4
132,51.4734,-0.3855,Hounslow<br />West,5,1,0,Hounslow West,-0.385731868407532,51.4730347989657,Hounslow West Station,Hounslow West,512215,176140,51.473105762632,-0.38569323300198,5
332,,,,,,,,,,,Hoxton,533582,183142,51.531391621283,-0.075571232880956,"1,2"
133,51.5027,-0.1527,Hyde<br />Park<br />Corner,1,1,0,Hyde Park Corner,-0.152748811981767,51.5027604112126,Hyde Park Corner Station,Hyde Park Corner,528330,179801,51.502584030904,-0.15245970877887,1
134,51.5619,-0.4421,NULL,6,2,0,Ickenham,-0.442026555689012,51.5619847425592,Ickenham Station,Ickenham,508127,185811,51.560825107127,-0.44156508942605,6
333,,,,,,,,,,,Imperial Wharf,526299,176674,51.474938948929,-0.18282310826897,2
135,51.4871,-0.0101,Island<br />Gardens,2,1,0,Island Gardens,-0.009489509781986,51.486671636732,Island Gardens Station,Island Gardens,538228,178432,51.487950088882,-0.010478902499309,2
136,51.4884,-0.1053,NULL,2,1,0,Kennington,-0.105485152526283,51.4881195306115,Kennington Station,Kennington,531660,178337,51.488662470707,-0.10505621257104,2
137,51.5304,-0.225,Kensal<br />Green,2,1,0,Kensal Green,-0.224716964703164,51.530457666117,Kensal Green Station,Kensal Green,523241,182784,51.530524241234,-0.22469897011847,2
334,,,,,,,,,,,Kensal Rise,523501,183201,51.53421509119,-0.22080656353585,2
138,51.4983,-0.2106,Kensington<br />(Olympia),2,1,1,Kensington (Olympia),-0.210382523117471,51.4978091673849,Kensington (Olympia) Station,Kensington (Olympia),524324,179178,51.497879724483,-0.21036483866639,2
139,51.5507,-0.1402,Kentish<br />Town,2,1,1,Kentish Town,-0.140464192953272,51.5503037622379,Kentish Town Station,Kentish Town,529029,185096,51.550009538423,-0.14045684366827,2
335,,,,,,,,,,,Kentish Town West,528603,184700,51.546547987029,-0.14674199079293,2
140,51.5816,-0.3162,NULL,4,1,0,Kenton,-0.317164405857978,51.5817884626014,Kenton Station,Kenton,516833,188304,51.581496322037,-0.31520243664979,4
141,51.477,-0.285,Kew<br />Gardens,3.5,1,0,Kew Gardens,-0.285252328214689,51.4770299301528,Kew Gardens Station,Kew Gardens,519173,176708,51.476789170755,-0.28536661446493,"3,4"
142,51.5471,-0.2047,NULL,2,1,0,Kilburn,-0.204633341254656,51.5468795024568,Kilburn Station,Kilburn,524589,184644,51.546944459981,-0.20461829997264,2
336,,,,,,,,,,,Kilburn High Road,525553,183591,51.537267764059,-0.19109868962017,2
143,51.5351,-0.1939,Kilburn<br />Park,2,1,0,Kilburn Park,-0.193965947368527,51.535069084357,Kilburn Park Station,Kilburn Park,525361,183349,51.535135560206,-0.19395164168612,2
307,51.502,0.0627,King<br />George V,3,1,0,King George V,,,,King George V,543231,180135,51.502008599189,0.062220618931645,3
145,51.5308,-0.1238,King's Cross<br />St. Pancras,1,6,1,King's Cross St. Pancras,-0.123857948142453,51.5303972379175,King's Cross St. Pancras Station,Kings Cross St. Pancras,530236,182935,51.530312476892,-0.12385771561154,1
144,51.5846,-0.2786,NULL,4,1,0,Kingsbury,-0.278799057434067,51.5847568661903,Kingsbury Station,Kingsbury,519361,188739,51.584876550714,-0.27858717715014,4
146,51.5015,-0.1607,NULL,1,1,0,Knightsbridge,-0.160507091328832,51.5015514332011,Knightsbridge Station,Knightsbridge,527765,179650,51.501354916808,-0.16065008131194,1
147,51.5172,-0.2107,Ladbroke<br />Grove,2,1,0,Ladbroke Grove,-0.210861917848587,51.5171884498817,Ladbroke Grove Station,Ladbroke Grove,524284,181328,51.517210698742,-0.21018376269161,2
148,51.4991,-0.1115,Lambeth<br />North,1,1,0,Lambeth North,-0.111760270277702,51.4990581486986,Lambeth North Station,Lambeth North,531165,179489,51.499129959063,-0.11175385704735,1
149,51.5119,-0.1756,Lancaster<br />Gate,1,1,0,Lancaster Gate,-0.175428659257817,51.5118215345886,Lancaster Gate Station,Lancaster Gate,526711,180796,51.511890964101,-0.17541552045722,1
337,,,,,,,,,,,Langdon Park,537807,181863,51.518883939693,-0.015199388573999,2
150,51.5139,-0.2172,Latimer<br />Road,2,1,0,Latimer Road,-0.217779301792146,51.5135435938972,Latimer Road Station,Latimer Road,523789,180954,51.513958124663,-0.21744525733064,2
151,51.5113,-0.1281,Leicester<br />Square,1,2,0,Leicester Square,-0.12823553217276,51.5112210283672,Leicester Square Station,Leicester Square,529987,180812,51.511291196842,-0.12822773962177,1
152,51.4657,-0.0142,NULL,2.5,1,1,Lewisham,-0.014706587477353,51.4660745374917,Lewisham Station,Lewisham,538163,175863,51.464880714235,-0.012418307529155,"2,3"
153,51.5566,-0.0053,NULL,3,1,0,Leyton,-0.005619879781309,51.5564329270549,Leyton Station,Leyton,538295,186244,51.55813227051,-0.006450908801181,3
338,,,,,,,,,,,Leyton Midland Road,538150,187490,51.569364239801,-0.008051921099718,3
154,51.5683,0.0083,NULL,3.5,1,0,Leytonstone,0.008215047486341,51.5681852636746,Leytonstone Station,Leytonstone,539345,187429,51.568522287449,0.009154878018083,"3,4"
339,,,,,,,,,,,Leytonstone High Road,539298,186903,51.563807342647,0.008268893406581,3
155,51.5123,-0.0396,NULL,2,1,1,Limehouse,-0.039712576574314,51.5124985174962,Limehouse Station,Limehouse,536150,181087,51.512312167848,-0.039365669438682,2
156,51.5178,-0.0823,Liverpool<br />Street,1,4,1,Liverpool Street,-0.082965709456944,51.5173512307517,Liverpool Street Station,Liverpool Street,533160,181596,51.517598273919,-0.082235212309326,1
157,51.5052,-0.0864,London<br />Bridge,1,2,1,London Bridge,-0.086922404191942,51.5054993532498,London Bridge Station,London Bridge,532937,180152,51.504674357597,-0.085991192281661,1
306,51.5037,0.0488,London<br />City<br />Airport,3,1,0,London City Airport,,,,London City Airport,542231,180294,51.50368965775,0.047887121033287,3
158,51.6412,0.0558,NULL,6,1,0,Loughton,0.05531199715457,51.6415127590806,Loughton Station,Loughton,542314,195641,51.641570470369,0.055293528321119,6
159,51.53,-0.1854,Maida<br />Vale,2,1,0,Maida Vale,-0.185625902229912,51.5297600168103,Maida Vale Station,Maida Vale,525967,182792,51.529995078969,-0.18541823310956,2
160,51.5712,-0.0958,Manor<br />House,2.5,1,0,Manor House,-0.095712466704881,51.5707560052844,Manor House Station,Manor House,532074,187482,51.570747151453,-0.095670549505162,"2,3"
161,51.5122,-0.094,Mansion<br />House,1,2,0,Mansion House,-0.094187135312933,51.512021200956,Mansion House Station,Mansion House,532347,180962,51.512091761163,-0.094183249527509,1
162,51.5136,-0.1586,Marble<br />Arch,1,1,0,Marble Arch,-0.158438046626587,51.5135432931812,Marble Arch Station,Marble Arch,527875,181056,51.513965510738,-0.15855680746603,1
163,51.5225,-0.1631,NULL,1,1,1,Marylebone,-0.163104487142124,51.5222233419704,Marylebone Station,Marylebone,527510,181985,51.522396687994,-0.16347815242029,1
164,51.5249,-0.0332,Mile<br />End,2,3,0,Mile End,-0.033404170381106,51.5250918718345,Mile End Station,Mile End,536577,182545,51.525310973905,-0.032651671918221,2
165,51.6082,-0.2103,Mill<br />Hill<br />East,4,1,0,Mill Hill East,-0.209894419946044,51.6082588952393,Mill Hill East Station,Mill Hill East,524057,191460,51.608316669912,-0.20988127429344,4
168,51.6294,-0.432,Moor<br />Park,6.5,1,0,Moor Park,-0.432666848603921,51.6297310904776,Moor Park Station,Moor Park,508563,193509,51.629930718133,-0.4328985822977,"6,7"
167,51.5186,-0.0886,NULL,1,4,1,Moorgate,-0.089006315013091,51.5183672498846,Moorgate Station,Moorgate,532688,181677,51.518437149414,-0.08900327764505,1
169,51.4022,-0.1948,NULL,4,1,0,Morden,-0.194790700834515,51.4023369407669,Morden Station,Morden,525664,168563,51.402185984981,-0.19483760810466,4
170,51.5342,-0.1387,Mornington<br />Crescent,2,1,0,Mornington Crescent,-0.1388425299899,51.5342066106026,Mornington Crescent Station,Mornington Crescent,529193,183359,51.534362233874,-0.1387299346061,2
171,51.4902,-0.0145,NULL,2,1,0,Mudchute,-0.01509121470163,51.4903641796311,Mudchute Station,Mudchute,537908,178789,51.491236186648,-0.014945543221677,2
172,51.5542,-0.2503,NULL,3,1,0,Neasden,-0.249782872822432,51.5539657174618,Neasden Station,Neasden,521415,185422,51.554627747213,-0.25010062378951,3
174,51.4767,-0.0327,New<br />Cross,2,1,1,New Cross,-0.032594570758595,51.4766742024557,New Cross Station,New Cross,536750,177110,51.476429418617,-0.032264414494673,2
175,51.4757,-0.0402,New<br />Cross<br />Gate,2,1,1,New Cross Gate,-0.040299579158886,51.4753373847014,New Cross Gate Station,New Cross Gate,536250,176967,51.475264932486,-0.039514655295107,2
173,51.5756,0.0899,Newbury<br />Park,4,1,0,Newbury Park,0.090337313681271,51.5755724936106,Newbury Park Station,Newbury Park,544947,188378,51.575638344309,0.090317586010402,4
181,51.5237,-0.2597,North<br />Acton,2.5,1,0,North Acton,-0.259737385737795,51.5233655563641,North Acton Station,North Acton,520831,181937,51.523432458806,-0.25971511616691,"2,3"
182,51.5175,-0.2887,North<br />Ealing,3,1,0,North Ealing,-0.28900497976256,51.5175551603587,North Ealing Station,North Ealing,518816,181243,51.517622323819,-0.28897914280262,3
183,51.5005,0.0039,North<br />Greenwich,2.5,1,0,North Greenwich,0.003607416938326,51.5001818239926,North Greenwich Station,North Greenwich,539168,179827,51.500255151591,0.00360066363719,"2,3"
184,51.5846,-0.3626,North<br />Harrow,5,1,0,North Harrow,-0.362223573258194,51.5847918467299,North Harrow Station,North Harrow,513540,188578,51.584631342978,-0.3626185623764,5
185,51.5621,-0.3034,North<br />Wembley,4,1,0,North Wembley,-0.304155735382629,51.5624902855754,North Wembley Station,North Wembley,517663,186198,51.562396328364,-0.30393379535805,4
176,51.4995,-0.3142,NULL,3,1,0,Northfields,-0.31415683266497,51.4992764821936,Northfields Station,Northfields,517051,179296,51.500491708619,-0.31505041439224,3
177,51.5483,-0.3687,NULL,5,1,0,Northolt,-0.368459834282661,51.5481504390027,Northolt Station,Northolt,513228,184519,51.548212945697,-0.36842617615208,5
178,51.5784,-0.3184,Northwick<br />Park,4,1,0,Northwick Park,-0.318206356876206,51.5785928414875,Northwick Park Station,Northwick Park,516634,187967,51.5785087266,-0.31818496289702,4
179,51.6111,-0.424,NULL,6,1,0,Northwood,-0.423860793851574,51.6111592289037,Northwood Station,Northwood,509236,191441,51.611214,-0.423823,6
180,51.6004,-0.4092,Northwood<br />Hills,6,1,0,Northwood Hills,-0.409298630674161,51.6004945765,Northwood Hills Station,Northwood Hills,510267,190305,51.600802695129,-0.40929692189409,6
340,,,,,,,,,,,Norwood Junction,534001,168193,51.396954330829,-0.075195484483074,4
186,51.5094,-0.1967,Notting<br />Hill Gate,1.5,3,0,Notting Hill Gate,-0.196537685407762,51.5090635336437,Notting Hill Gate Station,Notting Hill Gate,525296,180481,51.509375359878,-0.1959072111467,"1,2"
187,51.6476,-0.1318,NULL,5,1,0,Oakwood,-0.131841721300937,51.6475836491941,Oakwood Station,Oakwood,529349,195968,51.64763797617,-0.1318390886991,5
188,51.5263,-0.0873,Old<br />Street,1,1,1,Old Street,-0.087549731436462,51.5256013233698,Old Street Station,Old Street,532764,182474,51.525581481862,-0.087608545343845,1
190,51.4813,-0.3522,NULL,4,1,0,Osterley,-0.351994404645611,51.4809288045887,Osterley Station,Osterley,514529,177094,51.481216852781,-0.3520816978192,4
191,51.4819,-0.113,NULL,2,1,0,Oval,-0.112893408798068,51.482105452338,Oval Station,Oval,531108,177516,51.481412613811,-0.11330667730935,2
192,51.515,-0.1415,Oxford<br />Circus,1,3,0,Oxford Circus,-0.141768983668966,51.5151237990371,Oxford Circus Station,Oxford Circus,529102,181227,51.515223419245,-0.14082176208955,1
193,51.5154,-0.1755,NULL,1,4,1,Paddington,-0.175390006010324,51.5153104157935,Paddington Station,Paddington,526680,181185,51.515393806532,-0.17572234283505,1
194,51.527,-0.2841,Park<br />Royal,3,1,0,Park Royal,-0.284228015904849,51.5269013792454,Park Royal Station,Park Royal,519074,182274,51.526834054645,-0.28491450496891,3
195,51.4753,-0.2011,Parsons<br />Green,2,1,0,Parsons Green,-0.20123465658312,51.4750953304748,Parsons Green Station,Parsons Green,525029,176645,51.474960176772,-0.20111009589714,2
341,,,,,,,,,,,Peckham Rye,534152,176271,51.469511372801,-0.069969158361951,2
342,,,,,,,,,,,Penge West,534952,170567,51.418062935027,-0.060631385884983,4
196,51.5366,-0.3232,NULL,4,1,0,Perivale,-0.323852038492346,51.5365940899267,Perivale Station,Perivale,516404,183270,51.536341860358,-0.32305600630537,4
197,51.5098,-0.1342,Picadilly<br />Circus,1,2,0,Picadilly Circus,-0.134006365558422,51.5100269952708,Piccadilly Circus Station,Piccadilly Circus,529612,180625,51.509696764476,-0.13369718974012,1
198,51.4893,-0.1334,NULL,1,1,0,Pimlico,-0.133748665287791,51.4891937601105,Pimlico Station,Pimlico,529711,178386,51.489552877924,-0.1330938573102,1
199,51.5926,-0.3805,NULL,5,1,0,Pinner,-0.380919804150349,51.5928576300909,Pinner Station,Pinner,512233,189409,51.592361724428,-0.38120935690424,5
200,51.5313,0.0172,NULL,3,2,0,Plaistow,0.01780469869649,51.5312183924836,Plaistow Station,Plaistow,540058,183305,51.531288332324,0.017795056275962,3
305,51.5021,0.0319,Pontoon<br />Dock,3,1,0,Pontoon Dock,,,,Pontoon Dock,541226,180102,51.502216211037,0.033340112607835,3
201,51.5077,-0.0173,NULL,2,1,0,Poplar,-0.017228773736864,51.507488443277,Poplar Station,Poplar,537698,180603,51.507588072081,-0.017261086484836,2
202,51.572,-0.2954,Preston<br />Road,4,1,0,Preston Road,-0.295256300158968,51.572037991815,Preston Road Station,Preston Road,518260,187292,51.572103763883,-0.29495758553154,4
203,51.5093,0.0336,Prince<br />Regent,3,1,0,Prince Regent,0.033295484514232,51.509320665461,Prince Regent Station,Prince Regent,541215,180905,51.509434545079,0.033502981448267,3
204,51.5343,-0.0139,Pudding<br />Mill Lane,2.5,1,0,Pudding Mill Lane,-0.013174228379466,51.5344008408679,Pudding Mill Lane Station,Pudding Mill Lane,537930,183585,51.53432785535,-0.012754096692901,"2,3"
205,51.4682,-0.2089,Putney<br />Bridge,2,1,0,Putney Bridge,-0.208976678487921,51.4679022222719,Putney Bridge Station,Putney Bridge,524476,175842,51.467865362703,-0.20935102262327,2
206,51.5341,-0.2047,Queens<br />Park,2,1,1,Queen's Park,-0.204704090234203,51.5341009034469,Queen's Park Station,Queens Park,524612,183239,51.534312675201,-0.20478373421795,2
343,,,,,,,,,,,Queens Road Peckham,535015,176825,51.474284715779,-0.057340582526957,2
207,51.5942,-0.2861,NULL,4,1,0,Queensbury,-0.285785681643208,51.5943471480726,Queensbury Station,Queensbury,518802,189728,51.593883010111,-0.28631716346916,4
208,51.5107,-0.1877,NULL,1,1,0,Queensway,-0.187434461364574,51.5103800516246,Queensway Station,Queensway,525883,180615,51.510449255439,-0.18740549543317,1
209,51.4942,-0.2359,Ravenscourt<br />Park,2,1,0,Ravenscourt Park,-0.236258353945599,51.4941365314979,Ravenscourt Park Station,Ravenscourt Park,522558,178711,51.494068008984,-0.23595483065011,2
210,51.5753,-0.3714,Rayners<br />Lane,5,2,0,Rayners Lane,-0.371005563517765,51.5749767038813,Rayners Lane Station,Rayners Lane,512979,187538,51.575396777398,-0.371046385824,5
211,51.5763,0.0454,NULL,4,1,0,Redbridge,0.045423116107576,51.5763017924007,Redbridge Station,Redbridge,541833,188371,51.576366911264,0.045408472505876,4
212,51.5234,-0.1466,Regent's<br />Park,1,1,0,Regent's Park,-0.146862634752862,51.5235055034684,Regent's Park Station,Regents Park,528765,182174,51.52381069054,-0.14532999904559,1
213,51.4633,-0.3013,NULL,4,1,1,Richmond,-0.301754217686892,51.4631596408597,Richmond Station,Richmond,518072,175174,51.463232922347,-0.30172474133933,4
214,51.6404,-0.4733,NULL,7,1,0,Rickmansworth,-0.473712107018386,51.6402727069886,Rickmansworth Station,Rickmansworth,505717,194605,51.640323072212,-0.47367013575456,7
215,51.6171,0.0439,Roding<br />Valley,5,1,0,Roding Valley,0.043864415463376,51.6171152412054,Roding Valley Station,Roding Valley,541612,192882,51.616956440142,0.044040648415103,4
216,51.501,-0.0525,NULL,2,1,0,Rotherhithe,-0.052180998321319,51.5010056942665,Rotherhithe Station,Rotherhithe,535239,179870,51.501594510808,-0.052951891484305,2
217,51.5084,0.0465,Royal<br />Albert,3,1,0,Royal Albert,0.046216593557986,51.508196344367,Royal Albert Station,Royal Albert,542029,180823,51.508493863562,0.045191552169371,3
218,51.519,-0.188,Royal<br />Oak,2,1,0,Royal Oak,-0.18823004302831,51.5190171203333,Royal Oak Station,Royal Oak,525764,181485,51.518294375269,-0.18880926348942,2
219,51.5091,0.0181,Royal<br />Victoria,3,1,0,Royal Victoria,0.018078557359542,51.5090621106222,Royal Victoria Station,Royal Victoria,540139,180833,51.509055232332,0.017979819853408,3
220,51.5715,-0.4213,NULL,6,2,0,Ruislip,-0.42145507401498,51.5714491132228,Ruislip Station,Ruislip,509510,187102,51.57216197222,-0.42122049909957,6
221,51.5606,-0.4103,Ruislip<br />Gardens,5,1,0,Ruislip Gardens,-0.411039284928411,51.5605885030767,Ruislip Gardens Station,Ruislip Gardens,510367,185763,51.559960227907,-0.40927968814014,5
222,51.5732,-0.4125,Ruislip<br />Manor,6,2,0,Ruislip Manor,-0.41234579209326,51.573187677867,Ruislip Manor Station,Ruislip Manor,510088,187258,51.573451624726,-0.41283492710738,6
223,51.523,-0.1244,Russell<br />Square,1,1,0,Russell Square,-0.124310055647968,51.5229128450832,Russell Square Station,Russell Square,530207,182122,51.523013052867,-0.12457578611157,1
224,51.5822,-0.0749,Seven<br />Sisters,3,1,1,Seven Sisters,-0.072491881494999,51.5833541846647,Seven Sisters Station,Seven Sisters,533646,188927,51.583362168372,-0.0724523920649,3
225,51.5117,-0.056,NULL,2,2,0,Shadwell,-0.056904475684454,51.5112289781846,Shadwell Station,Shadwell,534936,180942,51.51130016173,-0.056904799137598,2
226,51.5046,-0.2187,Shepherd's<br />Bush,2,1,0,Shepherd's Bush (C),-0.226305459017775,51.5055608684908,Shepherd's Bush Central Station,Shepherds Bush,523741,179904,51.50453217729,-0.21850475368199,2
227,51.5058,-0.2265,Shepherd's Bush<br />Market,2,1,0,Shepherds Bush Market,-0.226305459017775,51.5055608684908,Shepherds Bush Market,Shepherds Bush Market,523121,180039,51.505880735504,-0.22738608723774,2
228,51.5227,-0.0708,NULL,2,1,0,Shoreditch,,,,Shoreditch High Street,533501,182258,51.523466827911,-0.077073012851082,1
229,51.4924,-0.1565,Sloane<br />Square,1,2,0,Sloane Square,-0.156486231690913,51.4922878240972,Sloane Square Station,Sloane Square,528080,178657,51.492359782932,-0.1564744555002,1
230,51.5808,0.0216,NULL,4,1,0,Snaresbrook,0.02149046243869,51.5808270197609,Snaresbrook Station,Snaresbrook,540161,188828,51.580891270601,0.021478357761873,4
344,,,,,,,,,,,South Acton,520166,179279,51.499685861011,-0.27020080333496,3
234,51.5011,-0.3072,South<br />Ealing,3,1,0,South Ealing,-0.307018839246706,51.5013679363442,South Ealing Station,South Ealing,517605,179437,51.501644057917,-0.30702584019952,3
235,51.5646,-0.3521,South<br />Harrow,5,1,0,South Harrow,-0.352211570870426,51.5646775705485,South Harrow Station,South Hampstead,526425,184081,51.541476868984,-0.1783567825076,2
236,51.4941,-0.1738,South<br />Kensington,1,3,0,South Kensington,-0.173922310883827,51.4939998727637,South Kensington Station,South Kensington,526865,178817,51.494071386411,-0.17390862058942,1
237,51.5701,-0.3081,South<br />Kenton,4,1,0,South Kenton,-0.308588675020215,51.5701716868714,South Kenton Station,South Kenton,517350,187153,51.571044486824,-0.30812855062663,4
238,51.5007,-0.0191,South<br />Quay,2,1,0,South Quay,-0.019101694079594,51.5005320110086,South Quay Station,South Quay,537636,179853,51.500863608239,-0.018446287979256,2
239,51.5569,-0.3988,South<br />Ruislip,5,1,1,South Ruislip,-0.398658757175953,51.5565169579717,South Ruislip Station,South Ruislip,511080,185437,51.55689035096,-0.39910148824501,5
345,,,,,,,,,,,South Tottenham,533697,188599,51.580402594532,-0.071841526783666,3
240,51.4154,-0.1919,South<br />Wimbledon,3.5,1,0,South Wimbledon,-0.191979094023124,51.4152803658843,South Wimbledon Station,South Wimbledon,525828,170033,51.41536073293,-0.19196016848772,"3,4"
241,51.5917,0.0275,South<br />Woodford,4,1,0,South Woodford,0.0273171337428,51.5917256482731,South Woodford Station,South Woodford,540577,190026,51.591552612383,0.027957511681624,4
231,51.4454,-0.2066,NULL,3,1,0,Southfields,-0.206537544055386,51.4449313270189,Southfields Station,Southfields,524730,173291,51.444883338258,-0.20659499856664,3
232,51.6322,-0.128,NULL,4,1,0,Southgate,-0.127758393371046,51.6323197100719,Southgate Station,Southgate,529675,194278,51.63237586338,-0.12775560097809,4
233,51.504,-0.1052,NULL,1,1,0,Southwark,-0.105091836006184,51.503843006939,Southwark Station,Southwark,531566,180025,51.503853632869,-0.10578053394541,1
248,51.4994,-0.1335,St. James's<br />Park,1,2,0,St. James's Park,-0.134183744115532,51.4993454561404,St. James's Park Station,St. James's Park,529629,179503,51.499609810342,-0.13386435110426,1
249,51.5347,-0.174,St. John's<br />Wood,2,1,0,St. John's Wood,-0.17417235633673,51.5345645163153,St. John's Wood Station,St. Johns Wood,526742,183352,51.534854431713,-0.17405042505482,2
250,51.5146,-0.0973,St. Paul's,1,1,0,St. Paul's,-0.097573654477604,51.5148012967333,St. Paul's Station,St. Pauls,532105,181261,51.51483530739,-0.097556591574387,1
242,51.495,-0.2459,Stamford<br />Brook,2,1,0,Stamford Brook,-0.245453795237972,51.4947962314568,Stamford Brook Station,Stamford Brook,521913,178738,51.494449997347,-0.24523190696758,2
243,51.6194,-0.3028,NULL,5,1,0,Stanmore,-0.303108171358638,51.6196183368386,Stanmore Station,Stanmore,517574,192569,51.6196734807,-0.30308485086488,5
346,,,,,,,,,,,Star Lane,539148,182091,51.520604250081,0.004205413555267,3
244,51.5221,-0.047,Stepney<br />Green,2,2,0,Stepney Green,-0.04645866635082,51.5219106296278,Stepney Green Station,Stepney Green,535566,182149,51.521995838874,-0.047368111957746,2
245,51.4723,-0.123,NULL,2,2,0,Stockwell,-0.122909311662103,51.4721665386158,Stockwell Station,Stockwell,530473,176470,51.472159270341,-0.12283190859196,2
246,51.5439,-0.2759,Stonebridge<br />Park,3,1,0,Stonebridge Park,-0.275409247579834,51.5439222858347,Stonebridge Park Station,Stonebridge Park,519690,184197,51.54398658738,-0.27538602336732,3
247,51.5416,-0.0042,NULL,3,3,1,Stratford,-0.003195329570308,51.5413092659669,Stratford Station,Stratford,538533,184421,51.541692579295,-0.003737223441771,3
347,,,,,,,,,,,Stratford High Street,538729,184032,51.538148951165,-0.001065939537146,3
348,,,,,,,,,,,Stratford International,538175,184758,51.54480853536,-0.008764015446365,3
251,51.5569,-0.3366,Sudbury<br />Hill,4,1,0,Sudbury Hill,-0.336215632044356,51.5569961892343,Sudbury Hill Station,Sudbury Hill,515427,185584,51.557339600086,-0.33637769283987,4
252,51.5507,-0.3156,Sudbury<br />Town,4,1,0,Sudbury Town,-0.315482697033724,51.5507824568971,Sudbury Town Station,Sudbury Town,516832,184955,51.551397480891,-0.31632906529511,4
253,51.4933,-0.0478,Surrey<br />Quays,2,1,0,Surrey Quays,-0.047514931071433,51.4931934574632,Surrey Quays Station,Surrey Quays,535641,178954,51.493266862158,-0.047515585346921,2
254,51.5432,-0.1738,Swiss<br />Cottage,2,2,0,Swiss Cottage,-0.174759253028734,51.5433153201544,Swiss Cottage Station,Swiss Cottage,526611,184259,51.543034867714,-0.17561218648329,2
361,,,,,,,,,,,Sydenham,535311,171609,51.427341258001,-0.055074289357489,3
255,51.5111,-0.1141,NULL,1,2,0,Temple,-0.11370308973837,51.5109699849445,Temple Station,Temple,530995,180810,51.51104062071,-0.11371134239066,1
256,51.6717,0.1033,Theydon<br />Bois,6,1,0,Theydon Bois,0.103125376663495,51.6717113173034,Theydon Bois Station,Theydon Bois,545509,199180,51.672552069981,0.10290519530392,6
257,51.4361,-0.1598,Tooting<br />Bec,3,1,0,Tooting Bec,-0.159700539935752,51.4357596288084,Tooting Bec Station,Tooting Bec,528015,172366,51.435838083172,-0.15968610811001,3
258,51.4275,-0.168,Tooting<br />Broadway,3,1,0,Tooting Broadway,-0.167976763305219,51.4274353896627,Tooting Broadway Station,Tooting Broadway,527415,171373,51.42704916499,-0.16867014599257,3
259,51.5165,-0.131,Tottenham<br />Court<br />Road,1,2,0,Tottenham Court Road,-0.130870518140944,51.5162095525139,Tottenham Court Road Station,Tottenham Court Road,529774,181354,51.51621088565,-0.13109602942553,1
260,51.5882,-0.0594,Tottenham<br />Hale,3,1,1,Tottenham Hale,-0.060281116367505,51.5880453015215,Tottenham Hale Station,Tottenham Hale,534483,189465,51.587997785049,-0.060173390466137,3
261,51.6302,-0.1791,Totteridge<br />& Whetstone,4,1,0,Totteridge & Whetstone,-0.179261212923983,51.6302077047624,Totteridge & Whetstone Station,Totteridge and Whetstone,526111,193951,51.63024674119,-0.17933981753571,4
262,51.5106,-0.0743,Tower<br />Gateway,1,1,0,Tower Gateway,-0.074530960965561,51.5105666387631,Tower Gateway Station,Tower Gateway,533725,180809,51.510392650922,-0.074395469530797,1
263,51.5098,-0.0766,Tower<br />Hill,1,2,0,Tower Hill,-0.076353695174605,51.5100659538841,Tower Hill Station,Tower Hill,533566,180805,51.510394282129,-0.076686790760475,1
264,51.5567,-0.1374,Tufnell<br />Park,2,1,0,Tufnell Park,-0.137924881080637,51.556666819989,Tufnell Park Station,Tufnell Park,529200,185816,51.556440814333,-0.13772775294192,2
265,51.4951,-0.2547,Turnham<br />Green,2.5,2,0,Turnham Green,-0.254532982987943,51.4951117252982,Turnham Green Station,Turnham Green,521267,178804,51.495181971972,-0.25451016527384,2
266,51.5904,-0.1028,Turnpike<br />Lane,3,1,0,Turnpike Lane,-0.102792275055815,51.5902967701548,Turnpike Lane Station,Turnpike Lane,531524,189650,51.590358146027,-0.1027906082273,3
267,51.559,0.251,NULL,6,1,1,Upminster,0.251087116066801,51.55888907617,Upminster Station,Upminster,556167,186833,51.558763325208,0.2514152239117,6
268,51.5582,0.2343,Upminster<br />Bridge,6,1,0,Upminster Bridge,0.23577122039992,51.5587505079473,Upminster Bridge Station,Upminster Bridge,555002,186681,51.557718771685,0.23455631120919,6
269,51.5385,0.1014,NULL,4,1,0,Upney,0.101565625591422,51.5383353124883,Upney Station,Upney,545844,184260,51.538405634701,0.10154616057314,4
362,,,,,,,,,,,Upper Holloway,529778,186630,51.563623319983,-0.12909493917319,2
270,51.5352,0.0343,Upton<br />Park,3,2,0,Upton Park,0.035273180129165,51.5352333039211,Upton Park Station,Upton Park,541204,183931,51.536628195871,0.034556255633226,3
271,51.5463,-0.4786,NULL,6,2,0,Uxbridge,-0.478139472136282,51.5464963704606,Uxbridge Station,Uxbridge,505698,184161,51.546454564696,-0.47708714109832,6
272,51.4861,-0.1253,NULL,1.5,1,1,Vauxhall,-0.123748951030591,51.4857333760403,Vauxhall Station,Vauxhall,530366,177978,51.485735816391,-0.12381555294752,"1,2"
273,51.4965,-0.1447,NULL,1,3,1,Victoria,-0.143844854340145,51.496342174731,Victoria Station,Victoria,528941,179131,51.496423969876,-0.14390630306143,1
274,51.583,-0.0195,Walthamstow<br />Central,3,1,1,Walthamstow Central,-0.019918639025008,51.5829547050026,Walthamstow Central Station,Walthamstow Central,537286,188986,51.583018115291,-0.019926114372123,3
349,,,,,,,,,,,Walthamstow Queens Road,537020,188815,51.581546193899,-0.0238295131434,3
350,,,,,,,,,,,Wandsworth Road,529354,176226,51.470223218762,-0.13902328072857,2
275,51.5775,0.0288,NULL,4,1,0,Wanstead,0.028745919335254,51.5755213369211,Wanstead Station,Wanstead,540685,188176,51.574902145755,0.028774900468403,4
351,,,,,,,,,,,Wanstead Park,540592,185600,51.551778074703,0.026404363778733,3
276,51.5043,-0.0558,NULL,2,1,0,Wapping,-0.055846250896648,51.5042682834818,Wapping Station,Wapping,535030,180170,51.504340322706,-0.055846408737992,2
277,51.5247,-0.1384,Warren<br />Street,1,2,0,Warren Street,-0.138272313383213,51.524511517548,Warren Street Station,Warren Street,529253,182272,51.524580005085,-0.13826391949985,1
278,51.5235,-0.1835,Warwick<br />Avenue,2,1,0,Warwick Avenue,-0.183678270688915,51.5232725227461,Warwick Avenue Station,Warwick Avenue,526158,182030,51.523104457076,-0.18293888140664,2
279,51.5036,-0.1143,NULL,1,4,1,Waterloo,-0.114069435807659,51.5035022071737,Waterloo Station,Waterloo,531050,179933,51.503146653078,-0.11324484659974,1
280,51.6573,-0.4177,NULL,8,1,0,Watford,-0.417280631945958,51.6574209719065,Watford Station,Watford,509579,196610,51.657605146891,-0.41725555293253,7
352,,,,,,,,,,,Watford High Street,511360,196098,51.652653752213,-0.39168227690127,8
353,,,,,,,,,,,Watford Junction,511023,197340,51.663883061474,-0.39615750118974,
281,51.5519,-0.2963,Wembley<br />Central,4,1,1,Wembley Central,-0.296859445373196,51.552329965978,Wembley Central Station,Wembley Central,518214,185039,51.551864816194,-0.29637790641578,4
282,51.5635,-0.2795,Wembley<br />Park,4,2,0,Wembley Park,-0.279251008726512,51.5632604839551,Wembley Park Station,Wembley Park,519373,186341,51.563322491915,-0.27922812839087,4
286,51.518,-0.2809,West<br />Acton,3,1,0,West Acton,-0.280993289991878,51.5178605861879,West Acton Station,West Acton,519394,181273,51.517770184208,-0.28064276561988,3
287,51.4872,-0.1953,West<br />Brompton,2,1,1,West Brompton,-0.195540834373957,51.4872569500067,West Brompton Station,West Brompton,525383,178030,51.487328938205,-0.19552441152812,2
354,,,,,,,,,,,West Croydon,532188,166098,51.378552186111,-0.1020199266263,5
288,51.6095,-0.1883,West<br />Finchley,4,1,0,West Finchley,-0.188468869728233,51.6094857097726,West Finchley Station,West Finchley,525507,191601,51.609262750488,-0.1889026706526,4
289,51.5287,0.0056,West<br />Ham,3,3,1,West Ham,0.005039507096672,51.5281817729418,West Ham Station,West Ham,539202,182974,51.52852551818,0.005331807258675,3
290,51.5469,-0.1906,West<br />Hampstead,2,1,1,West Hampstead,-0.190749850256434,51.5467019790949,West Hampstead Station,West Hampstead,525524,184726,51.547474356007,-0.19111216622603,2
291,51.5795,-0.3533,West<br />Harrow,5,1,0,West Harrow,-0.352920630985434,51.5797781937093,West Harrow Station,West Harrow,514163,187957,51.578924280955,-0.35383226807134,5
292,51.507,-0.0203,West<br />India<br />Quay,2,1,0,West India Quay,-0.020148081137072,51.5066384393279,West India Quay Station,West India Quay,537471,180505,51.506762659668,-0.020568040587805,2
293,51.4907,-0.2065,West<br />Kensington,2,1,0,West Kensington,-0.206477114705301,51.4904916857321,West Kensington Station,West Kensington,524635,178321,51.490109387233,-0.20618929345907,2
294,51.5696,-0.4376,West<br />Ruislip,6,1,1,West Ruislip,-0.437886436759924,51.5695288629204,West Ruislip Station,West Ruislip,508364,186791,51.569587924657,-0.43784571956141,6
304,51.5027,0.0226,West<br />Silvertown,3,1,0,West Silvertown,,,,West Silvertown,540455,180155,51.502884431544,0.022260451989289,3
283,51.521,-0.2011,Westbourne<br />Park,2,1,0,Westbourne Park,-0.200883771467904,51.520920849526,Westbourne Park Station,Westbourne Park,524920,181764,51.520988865484,-0.20086810419124,2
284,51.5097,-0.0265,NULL,2,1,0,Westferry,-0.025791956499848,51.5094317823353,Westferry Station,Westferry,537064,180814,51.509638150617,-0.026308729670621,2
285,51.501,-0.1254,NULL,1,3,0,Westminster,-0.124818265200699,51.5010845834465,Westminster Station,Westminster,530240,179718,51.501401606172,-0.12498767440679,1
296,51.512,-0.2239,White<br />City,2,1,0,White City,-0.224254319227985,51.511978113587,White City Station,White City,523296,180750,51.512232464701,-0.22461752326457,2
295,51.5194,-0.0612,NULL,2,3,0,Whitechapel,-0.05998498296226,51.5194552468908,Whitechapel Station,Whitechapel,534738,181859,51.519587792346,-0.059406074587337,2
297,51.5492,-0.2215,Willesden<br />Green,2.5,1,0,Willesden Green,-0.222410152080799,51.549308888248,Willesden Green Station,Willesden Green,523350,184884,51.549373313232,-0.22239318421442,"2,3"
298,51.5326,-0.2478,Willesden<br />Junction,3,1,1,Willesden Junction,-0.244288894517035,51.5321914971036,Willesden Junction Station,Willesden Junction,521905,182942,51.532233992929,-0.2438947288224,3
299,51.4214,-0.2064,NULL,3,1,1,Wimbledon,-0.206381586903592,51.4213837195318,Wimbledon Station,Wimbledon,524791,170647,51.421107869794,-0.20664845638008,3
300,51.4343,-0.1992,Wimbledon<br />Park,3,1,0,Wimbledon Park,-0.199595272173123,51.4344641860254,Wimbledon Park Station,Wimbledon Park,525274,172158,51.434580976538,-0.19917189150183,3
303,51.5975,-0.1097,Wood<br />Green,3,1,0,Wood Green,-0.109626380548446,51.5974760313084,Wood Green Station,Wood Green,531038,190427,51.597453741251,-0.10951215426353,3
355,,,,,,,,,,,Wood Lane,523314,180464,51.509658221839,-0.2244582012666,2
301,51.607,0.0341,NULL,4,1,0,Woodford,0.034037144154079,51.607033365181,Woodford Station,Woodford,540952,191778,51.607201839663,0.034070640659794,4
356,,,,,,,,,,,Woodgrange Park,541861,185332,51.549052529247,0.044586916011772,"3,4"
302,51.6179,-0.1856,Woodside<br />Park,4,1,0,Woodside Park,-0.185421027508839,51.6178114073829,Woodside Park Station,Woodside Park,525725,192564,51.617868422141,-0.185411063095,4
357,,,,,,,,,,,Woolwich Arsenal,543754,178803,51.489907107526,0.069208307647642,4